$$SOE
2461302.500000000, A.D. 2026-Sep-19 00:00:00.0000, -1.342530639911421E+08, -3.881404973598353E+08, 1.345481741665402E+07,
2461309.500000000, A.D. 2026-Sep-26 00:00:00.0000, -1.229419458059426E+08, -3.905036044153556E+08, 1.315848235992767E+07,
2461316.500000000, A.D. 2026-Oct-03 00:00:00.0000, -1.115439902844340E+08, -3.925909076736249E+08, 1.285285345386253E+07,
2461323.500000000, A.D. 2026-Oct-10 00:00:00.0000, -1.000665061609033E+08, -3.943983227916815E+08, 1.253806108191136E+07,
2461330.500000000, A.D. 2026-Oct-17 00:00:00.0000, -8.851702084624875E+07, -3.959219791857715E+08, 1.221424753667058E+07,
2461337.500000000, A.D. 2026-Oct-24 00:00:00.0000, -7.690327416461161E+07, -3.971582336959157E+08, 1.188156714603376E+07,
2461344.500000000, A.D. 2026-Oct-31 00:00:00.0000, -6.523321106183374E+07, -3.981036843172175E+08, 1.154018634565479E+07,
2461351.500000000, A.D. 2026-Nov-07 00:00:00.0000, -5.351497293190404E+07, -3.987551838528187E+08, 1.119028367078581E+07,
2461358.500000000, A.D. 2026-Nov-14 00:00:00.0000, -4.175688735164689E+07, -3.991098525263221E+08, 1.083204971979919E+07,
2461365.500000000, A.D. 2026-Nov-21 00:00:00.0000, -2.996745803276619E+07, -3.991650887932197E+08, 1.046568730955353E+07,
2461372.500000000, A.D. 2026-Nov-28 00:00:00.0000, -1.815535599263743E+07, -3.989185812776334E+08, 1.009141166657573E+07,
2461379.500000000, A.D. 2026-Dec-05 00:00:00.0000, -6.329408334131896E+06, -3.983683224089758E+08, 9.709450266953886E+06,
2461386.500000000, A.D. 2026-Dec-12 00:00:00.0000, 5.501415512156005E+06, -3.975126205667335E+08, 9.320042563054949E+06,
2461393.500000000, A.D. 2026-Dec-19 00:00:00.0000, 1.732801816913499E+07, -3.963501106452761E+08, 8.923439769951046E+06,
2461400.500000000, A.D. 2026-Dec-26 00:00:00.0000, 2.914118914054615E+07, -3.948797638249652E+08, 8.519904653098434E+06,
2461407.500000000, A.D. 2027-Jan-02 00:00:00.0000, 4.093162031686531E+07, -3.931008966600117E+08, 8.109711275977492E+06,
2461414.500000000, A.D. 2027-Jan-09 00:00:00.0000, 5.268992222488070E+07, -3.910131793844920E+08, 7.693144698390722E+06,
2461421.500000000, A.D. 2027-Jan-16 00:00:00.0000, 6.440664099651425E+07, -3.886166433524424E+08, 7.270500622849286E+06,
2461428.500000000, A.D. 2027-Jan-23 00:00:00.0000, 7.607227603564605E+07, -3.859116875814400E+08, 6.842084981886655E+06,
2461435.500000000, A.D. 2027-Jan-30 00:00:00.0000, 8.767729849572380E+07, -3.828990843838066E+08, 6.408213445987314E+06,
2461442.500000000, A.D. 2027-Feb-06 00:00:00.0000, 9.921217091014689E+07, -3.795799836885029E+08, 5.969210842221260E+06,
2461449.500000000, A.D. 2027-Feb-13 00:00:00.0000, 1.106673674252934E+08, -3.759559147836469E+08, 5.525410627019837E+06,
2461456.500000000, A.D. 2027-Feb-20 00:00:00.0000, 1.220333921766517E+08, -3.720287862262660E+08, 5.077154566900954E+06,
2461463.500000000, A.D. 2027-Feb-27 00:00:00.0000, 1.333007971047571E+08, -3.678008870955718E+08, 4.624792238252237E+06,
2461470.500000000, A.D. 2027-Mar-06 00:00:00.0000, 1.444602021276335E+08, -3.632748876408511E+08, 4.168680228748173E+06,
2461477.500000000, A.D. 2027-Mar-13 00:00:00.0000, 1.555023159649869E+08, -3.584538372599704E+08, 3.709181357529968E+06,
2461484.500000000, A.D. 2027-Mar-20 00:00:00.0000, 1.664179563774311E+08, -3.533411606384686E+08, 3.246663952735797E+06,
2461491.500000000, A.D. 2027-Mar-27 00:00:00.0000, 1.771980699139463E+08, -3.479406526034330E+08, 2.781501126488790E+06,
2461498.500000000, A.D. 2027-Apr-03 00:00:00.0000, 1.878337512607545E+08, -3.422564717551454E+08, 2.314070028565452E+06,
2461505.500000000, A.D. 2027-Apr-10 00:00:00.0000, 1.983162621429481E+08, -3.362931328775377E+08, 1.844751078836948E+06,
2461512.500000000, A.D. 2027-Apr-17 00:00:00.0000, 2.086370496930279E+08, -3.300554981732221E+08, 1.373927179001108E+06,
2461519.500000000, A.D. 2027-Apr-24 00:00:00.0000, 2.187877642635536E+08, -3.235487674245004E+08, 9.019828949196339E+05,
2461526.500000000, A.D. 2027-May-01 00:00:00.0000, 2.287602768905101E+08, -3.167784671030283E+08, 4.293035883423537E+05,
2461533.500000000, A.D. 2027-May-08 00:00:00.0000, 2.385466966298268E+08, -3.097504377444140E+08, -4.372546445429325E+04,
2461540.500000000, A.D. 2027-May-15 00:00:00.0000, 2.481393861899467E+08, -3.024708187110671E+08, -5.167197471143305E+05,
2461547.500000000, A.D. 2027-May-22 00:00:00.0000, 2.575309742198737E+08, -2.949460330176256E+08, -9.892960346101969E+05,
2461554.500000000, A.D. 2027-May-29 00:00:00.0000, 2.667143675388355E+08, -2.871827737728770E+08, -1.461073205243066E+06,
2461561.500000000, A.D. 2027-Jun-05 00:00:00.0000, 2.756827641329275E+08, -2.791879891973571E+08, -1.931673154331982E+06,
2461568.500000000, A.D. 2027-Jun-12 00:00:00.0000, 2.844296648613978E+08, -2.709688658808433E+08, -2.400721586167604E+06,
2461575.500000000, A.D. 2027-Jun-19 00:00:00.0000, 2.929488835011243E+08, -2.625328113135356E+08, -2.867848726529270E+06,
2461582.500000000, A.D. 2027-Jun-26 00:00:00.0000, 3.012345553783842E+08, -2.538874360529646E+08, -3.332689999246806E+06,
2461589.500000000, A.D. 2027-Jul-03 00:00:00.0000, 3.092811447000066E+08, -2.450405356204833E+08, -3.794886674980640E+06,
2461596.500000000, A.D. 2027-Jul-10 00:00:00.0000, 3.170834506105843E+08, -2.360000722213495E+08, -4.254086491901726E+06,
2461603.500000000, A.D. 2027-Jul-17 00:00:00.0000, 3.246366120109614E+08, -2.267741564291966E+08, -4.709944252168983E+06,
2461610.500000000, A.D. 2027-Jul-24 00:00:00.0000, 3.319361113019234E+08, -2.173710289968915E+08, -5.162122411513224E+06,
2461617.500000000, A.D. 2027-Jul-31 00:00:00.0000, 3.389777774819365E+08, -2.077990426537783E+08, -5.610291678510815E+06,
2461624.500000000, A.D. 2027-Aug-07 00:00:00.0000, 3.457577884263692E+08, -1.980666428311292E+08, -6.054131509216070E+06,
2461631.500000000, A.D. 2027-Aug-14 00:00:00.0000, 3.522726700822269E+08, -1.881823476609907E+08, -6.493330305420026E+06,
2461638.500000000, A.D. 2027-Aug-21 00:00:00.0000, 3.585192932345842E+08, -1.781547306977555E+08, -6.927585647544749E+06,
2461645.500000000, A.D. 2027-Aug-28 00:00:00.0000, 3.644948713192037E+08, -1.679924052351553E+08, -7.356604778302073E+06,
2461652.500000000, A.D. 2027-Sep-04 00:00:00.0000, 3.701969581518897E+08, -1.577040077861480E+08, -7.780105024220958E+06,
2461659.500000000, A.D. 2027-Sep-11 00:00:00.0000, 3.756234442368811E+08, -1.472981814511923E+08, -8.197814081375234E+06,
2461666.500000000, A.D. 2027-Sep-18 00:00:00.0000, 3.807725518493176E+08, -1.367835598823923E+08, -8.609470231326319E+06,
2461673.500000000, A.D. 2027-Sep-25 00:00:00.0000, 3.856428291862658E+08, -1.261687519715383E+08, -9.014822515638523E+06,
2461680.500000000, A.D. 2027-Oct-02 00:00:00.0000, 3.902331437298980E+08, -1.154623272783768E+08, -9.413630874919489E+06,
2461687.500000000, A.D. 2027-Oct-09 00:00:00.0000, 3.945426749155191E+08, -1.046728022412562E+08, -9.805666256377615E+06,
2461694.500000000, A.D. 2027-Oct-16 00:00:00.0000, 3.985709062379696E+08, -9.380862725646672E+07, -1.019071070195187E+07,
2461701.500000000, A.D. 2027-Oct-23 00:00:00.0000, 4.023176171249750E+08, -8.287817465652986E+07, -1.056855744327689E+07,
2461708.500000000, A.D. 2027-Oct-30 00:00:00.0000, 4.057828750193435E+08, -7.188972699334374E+07, -1.093901098991767E+07,
2461715.500000000, A.D. 2027-Nov-06 00:00:00.0000, 4.089670265757608E+08, -6.085146450724164E+07, -1.130188701370357E+07,
2461722.500000000, A.D. 2027-Nov-13 00:00:00.0000, 4.118706860564597E+08, -4.977145386454855E+07, -1.165701201862921E+07,
2461729.500000000, A.D. 2027-Nov-20 00:00:00.0000, 4.144947238910561E+08, -3.865764035106172E+07, -1.200422324332639E+07,
2461736.500000000, A.D. 2027-Nov-27 00:00:00.0000, 4.168402570775137E+08, -2.751784055075377E+07, -1.234336870429479E+07,
2461743.500000000, A.D. 2027-Dec-04 00:00:00.0000, 4.189086394600252E+08, -1.635973458475935E+07, -1.267430712156312E+07,
2461750.500000000, A.D. 2027-Dec-11 00:00:00.0000, 4.207014513904988E+08, -5.190858860694078E+06, -1.299690775704764E+07,
2461757.500000000, A.D. 2027-Dec-18 00:00:00.0000, 4.222204891020014E+08, 5.981400345463320E+06, -1.331105022054315E+07,
2461764.500000000, A.D. 2027-Dec-25 00:00:00.0000, 4.234677539950301E+08, 1.714981249247919E+07, -1.361662425944636E+07,
2461771.500000000, A.D. 2028-Jan-01 00:00:00.0000, 4.244454419220966E+08, 2.830730759916885E+07, -1.391352953672973E+07,
$$EOE